EYESAT-1 (AO-27)        
1 22825U 93061C   18017.85854661 -.00000016  00000-0  11710-4 0  9990
2 22825  98.8433 351.4104 0009413  67.6806 292.5372 14.30019458267813
CUTE-1 (CO-55)          
1 27844U 03031E   18018.02517290  .00000051  00000-0  42603-4 0  9991
2 27844  98.6884  28.8862 0010830  86.8036 273.4381 14.22089241754857
CUBESAT XI-IV (CO-57)   
1 27848U 03031J   18018.01324846  .00000030  00000-0  33499-4 0  9997
2 27848  98.6974  29.2196 0010740  95.8582 264.3820 14.21696654754726
CUBESAT XI 5            
1 28895U 05043F   18017.93254782  .00000130  00000-0  33706-4 0  9998
2 28895  97.8863 175.6691 0016900 180.0789 180.0414 14.63498947651666
CUTE-1.7+APD II (CO-65) 
1 32785U 08021C   18018.16549517  .00000200  00000-0  27376-4 0  9993
2 32785  97.5535  37.4615 0013357 169.5576 190.5921 14.88047324526860
COMPASS-1               
1 32787U 08021E   18018.12290751  .00000170  00000-0  21589-4 0  9990
2 32787  97.5400  47.5637 0013620 136.0656 224.1650 14.92886961527564
AAUSAT-II               
1 32788U 08021F   18017.75439425  .00000653  00000-0  65982-4 0  9993
2 32788  97.5372  50.4144 0013156 128.8584 231.3813 14.94189939527713
DELFI-C3 (DO-64)        
1 32789U 08021G   18018.40413763  .00000701  00000-0  52615-4 0  9997
2 32789  97.5331  76.8827 0014199  90.0942 270.1912 15.05682841529249
CANX-2                  
1 32790U 08021H   18018.52210643  .00000184  00000-0  25754-4 0  9993
2 32790  97.5531  36.0472 0013992 170.6546 189.4935 14.87757905526856
SEEDS II (CO-66)        
1 32791U 08021J   18018.02727108  .00000301  00000-0  36214-4 0  9992
2 32791  97.5463  42.3222 0014116 153.1219 207.0733 14.90446878527140
SWISSCUBE               
1 35932U 09051B   18017.40083869  .00000111  00000-0  36006-4 0  9994
2 35932  98.5222 165.1383 0006764 318.9193  41.1494 14.56111423441499
BEESAT                  
1 35933U 09051C   18018.40103809  .00000103  00000-0  34123-4 0  9992
2 35933  98.5261 167.6102 0005165 333.0181  27.0747 14.56220651441744
ITUPSAT 1               
1 35935U 09051E   18018.09646294  .00000072  00000-0  27773-4 0  9997
2 35935  98.5374 167.5535 0007393 324.9113  35.1596 14.55403447441498
TISAT 1                 
1 36799U 10035E   18017.83030906  .00000410  00000-0  47861-4 0  9994
2 36799  98.0849 150.2882 0011910 348.2722  11.8216 14.90669789407751
M-CUBED & EXP-1 PRIME   
1 37855U 11061F   18017.88065727  .00000574  00000-0  37720-4 0  9996
2 37855 101.7228   3.5093 0177908 166.8657 193.7276 15.03987783339058
HORYU 2                 
1 38340U 12025D   18018.07153326  .00000201  00000-0  37726-4 0  9995
2 38340  98.3744  34.5711 0010978 334.2110  25.8550 14.75485317304978
STRAND-1                
1 39090U 13009E   18017.64204770  .00000032  00000-0  26589-4 0  9990
2 39090  98.5335 225.8530 0009760  30.2977 329.8771 14.35007108256213
BRITE-AUSTRIA           
1 39091U 13009F   18018.06625063  .00000018  00000-0  21662-4 0  9991
2 39091  98.5301 225.5929 0011159  35.6255 324.5673 14.35057145256319
UNIBRITE                
1 39092U 13009G   18017.80548129  .00000004  00000-0  16828-4 0  9993
2 39092  98.5312 225.0076 0009944  30.8695 329.3073 14.34931301256258
AIST-2                  
1 39133U 13015D   18018.68821915  .00000084  00000-0  18602-4 0  9990
2 39133  64.8744 324.4174 0034246 246.0465 113.7067 15.04472378260717
SOMP                    
1 39134U 13015E   18017.95469097  .00001081  00000-0  61045-4 0  9996
2 39134  64.8628 252.7235 0029159 230.1340 129.7221 15.18722140261702
BEESAT-3                
1 39135U 13015F   18017.93207840  .00000665  00000-0  44018-4 0  9999
2 39135  64.8687 264.2342 0030857 254.1240 105.6484 15.16322396261472
BEESAT-2                
1 39136U 13015G   18018.64149078  .00000728  00000-0  47868-4 0  9993
2 39136  64.8690 264.3390 0030311 253.0384 106.7418 15.15806723261922
NEE-01 PEGASUS          
1 39151U 13018B   18018.19763585  .00000154  00000-0  27475-4 0  9993
2 39151  97.9786 113.3357 0018406  75.9982 284.3275 14.79841804255334
CUBEBUG-1 (CAPITAN BETO)
1 39153U 13018D   18018.25441983  .00000202  00000-0  33461-4 0  9993
2 39153  97.9816 114.3956 0018287  73.8491 286.4732 14.80326109255413
ESTCUBE 1               
1 39161U 13021C   18018.68894916  .00000132  00000-0  28992-4 0  9996
2 39161  98.0174 106.7829 0009730 167.3703 192.7750 14.72010241252451
POPACS 1                
1 39268U 13055D   18016.05192288  .00002695  00000-0  77199-4 0  9992
2 39268  81.0043 145.7125 0642070 314.4174  40.6115 14.32986504221187
POPACS 2                
1 39269U 13055E   18017.73308633  .00001636  00000-0  47295-4 0  9990
2 39269  81.0160 162.8720 0694940 358.6974   1.2362 14.21363170220542
POPACS 3                
1 39270U 13055F   18017.85540801  .00000434  00000-0  12242-4 0  9999
2 39270  81.0171 173.2076 0721847  29.5812 334.4231 14.14181489200400
ZACUBE-1 (TSHEPISOSAT)  
1 39417U 13066B   18017.90825927  .00000209  00000-0  32968-4 0  9992
2 39417  97.6048  54.4359 0057747 287.7337  71.7579 14.80861039224551
WNISAT-1                
1 39423U 13066H   18018.21458220  .00000138  00000-0  36545-4 0  9998
2 39423  97.7077 354.0643 0176629 125.6061 236.1734 14.52915779220456
TRITON-1                
1 39427U 13066M   18018.44480320  .00000203  00000-0  40447-4 0  9992
2 39427  97.6366  24.3504 0114643  19.8482 340.7130 14.67598905222618
GOMX 1                  
1 39430U 13066Q   18018.45867697  .00000243  00000-0  52562-4 0  9998
2 39430  97.6815   6.2661 0153081  83.2900 278.5696 14.59007132221323
BRITE-PL                
1 39431U 13066R   18017.84671327  .00000042  00000-0  18926-4 0  9997
2 39431  97.7373 341.9020 0202713 171.0558 189.4337 14.46902151219290
HUMSAT-D                
1 39433U 13066T   18017.72494461  .00000460  00000-0  50883-4 0  9990
2 39433  97.6259  79.2113 0030193 221.3983 138.4949 14.91720971225995
EAGLE 2                 
1 39436U 13066W   18018.13862025  .00050170  00000-0  72551-3 0  9992
2 39436  97.7125 142.2085 0005478  16.2969 343.8460 15.55758174229837
CUBEBUG-2 (LO-74)       
1 39440U 13066AA  18017.94409602  .00000217  00000-0  37530-4 0  9999
2 39440  97.6108  42.0374 0079689 324.2620  35.3272 14.75598822222561
NEE-02 KRYSAOR          
1 39441U 13066AB  18017.53269196  .00000153  00000-0  29014-4 0  9994
2 39441  97.6100  40.0482 0081252 330.1068  29.5514 14.74724742223570
FUNCUBE-1 (AO-73)       
1 39444U 13066AE  18017.64456384  .00000240  00000-0  36257-4 0  9990
2 39444  97.6062  55.5183 0056900 284.4441  75.0463 14.81623474223361
UWE-3                   
1 39446U 13066AG  18017.54715446  .00000215  00000-0  35555-4 0  9990
2 39446  97.6066  47.5289 0069095 307.6984  51.7975 14.78131379222861
BRITE-TORONTO           
1 40020U 14033L   18018.58783698  .00000078  00000-0  21890-4 0  9998
2 40020  97.8053 244.3133 0087675   2.3756 357.7848 14.66461486191656
DUCHIFAT-1              
1 40021U 14033M   18018.72942194  .00000408  00000-0  47976-4 0  9993
2 40021  97.9179 297.1797 0012128 316.2714  43.7542 14.90172618194694
FLOCK 1C-10             
1 40023U 14033P   18017.98449287  .00000720  00000-0  82358-4 0  9997
2 40023  97.9191 295.2289 0012250 326.1679  33.8778 14.89097427194469
NANOSATC-BR1            
1 40024U 14033Q   18017.82416659  .00000330  00000-0  40623-4 0  9994
2 40024  97.9126 294.8009 0011468 321.7410  38.2992 14.89455084194494
QB50P1                  
1 40025U 14033R   18018.45885072  .00000262  00000-0  34187-4 0  9996
2 40025  97.9094 294.1378 0011706 323.1942  36.8470 14.88618525194510
FLOCK 1C-7              
1 40026U 14033S   18017.96220192 -.00000107  00000-0 -51428-5 0  9996
2 40026  97.9213 296.2269 0010557 323.6100  36.4408 14.89836133194526
FLOCK 1C-1              
1 40027U 14033T   18017.74199805  .00000686  00000-0  78575-4 0  9990
2 40027  97.9233 295.2794 0012277 325.8981  34.1375 14.89159082194443
POPSAT-HIP-1            
1 40028U 14033U   18018.71153162  .00000014  00000-0  76080-5 0  9990
2 40028  97.9133 294.7307 0013197 321.1394  38.8885 14.88476930194536
FLOCK 1C-2              
1 40029U 14033V   18018.70817289  .00000161  00000-0  23058-4 0  9996
2 40029  97.9202 296.0863 0013331 317.5559  42.4649 14.89203030194571
FLOCK 1C-4              
1 40031U 14033X   18018.74739881  .00000490  00000-0  57993-4 0  9994
2 40031  97.9199 296.0643 0013709 315.0579  44.9480 14.89027694194568
QB50P2                  
1 40032U 14033Y   18018.77248137  .00000269  00000-0  35290-4 0  9997
2 40032  97.9057 293.3340 0011001 317.3528  42.6834 14.88168548194503
FLOCK 1C-11             
1 40033U 14033Z   18018.72945833  .00000825  00000-0  90553-4 0  9991
2 40033  97.9236 297.9885 0011068 308.0019  52.0209 14.90415964194693
ANTELSAT                
1 40034U 14033AA  18018.30537448  .00000225  00000-0  41255-4 0  9994
2 40034  97.8319 260.2222 0058184 321.9040  37.8062 14.73848278192607
FLOCK 1C-9              
1 40035U 14033AB  18018.75695644  .00000064  00000-0  12783-4 0  9992
2 40035  97.9224 296.5973 0011326 311.2307  48.7887 14.89231586194584
FLOCK 1C-6              
1 40036U 14033AC  18017.82205090  .00000284  00000-0  35966-4 0  9994
2 40036  97.9252 295.9312 0011350 314.5929  45.4347 14.89337576194467
PERSEUS-M2              
1 40037U 14033AD  18017.82241139  .00000085  00000-0  15954-4 0  9993
2 40037  97.9060 290.3740 0013671 327.4913  32.5459 14.86315114194195
FLOCK 1C-5              
1 40038U 14033AE  18018.70591534  .00000319  00000-0  39620-4 0  9995
2 40038  97.9222 296.5738 0013287 308.6599  51.3449 14.89307152194582
PERSEUS-M1              
1 40039U 14033AF  18018.81925537  .00000088  00000-0  16399-4 0  9993
2 40039  97.9062 290.8148 0013381 320.3428  39.6807 14.85937788194299
FLOCK 1C-8              
1 40040U 14033AG  18018.74996908  .00000563  00000-0  62309-4 0  9997
2 40040  97.9273 299.4839 0011717 294.5669  65.4229 14.91270329194751
